[{"OBJECT_NAME":"STARLINK-4344","OBJECT_ID":"2022-077AF","EPOCH":"2026-03-09T12:18:42.862176","MEAN_MOTION":15.05647696,"ECCENTRICITY":0.00013562,"INCLINATION":97.6026,"RA_OF_ASC_NODE":251.0167,"ARG_OF_PERICENTER":90.2104,"MEAN_ANOMALY":269.9278,"EPHEMERIS_TYPE":0,"CLASSIFICATION_TYPE":"U","NORAD_CAT_ID":53072,"ELEMENT_SET_NO":999,"REV_AT_EPOCH":20095,"BSTAR":2.2299596e-5,"MEAN_MOTION_DOT":2.61e-6,"MEAN_MOTION_DDOT":0},{"OBJECT_NAME":"EXPLORER 11","OBJECT_ID":"1961-013A","EPOCH":"2026-03-09T10:05:52.450080","MEAN_MOTION":14.21739623,"ECCENTRICITY":0.04946829,"INCLINATION":28.7774,"RA_OF_ASC_NODE":171.5314,"ARG_OF_PERICENTER":276.7085,"MEAN_ANOMALY":77.745,"EPHEMERIS_TYPE":0,"CLASSIFICATION_TYPE":"U","NORAD_CAT_ID":107,"ELEMENT_SET_NO":999,"REV_AT_EPOCH":26228,"BSTAR":0.00050011847,"MEAN_MOTION_DOT":4.224e-5,"MEAN_MOTION_DDOT":0}]
